start=new Date('2022-04-04T00:00:00.000Z').valueOf();
sats=[{"MEAN_ANOMALY":"289.0989","PERIOD":"95.593","OBJECT_NAME":"STARLINK-1912","COUNTRY_CODE":"US","MEAN_MOTION_DDOT":"0.0000000000000","CLASSIFICATION_TYPE":"U","ARG_OF_PERICENTER":"71.0163","ECCENTRICITY":"0.00015110","BSTAR":"0.00012674000000","SEMIMAJOR_AXIS":"6925.380","SITE":"AFETR","REV_AT_EPOCH":"7542","CENTER_NAME":"EARTH","OBJECT_TYPE":"PAYLOAD","FILE":"3386965","GP_ID":"200379221","RA_OF_ASC_NODE":"267.2476","REF_FRAME":"TEME","TIME_SYSTEM":"UTC","RCS_SIZE":"LARGE","EPHEMERIS_TYPE":"0","APOAPSIS":"548.292","NORAD_CAT_ID":"47178","ELEMENT_SET_NO":"999","DECAY_DATE":null,"EPOCH":"2022-04-03T20:55:16.219200","TLE_LINE2":"2 47178  53.0554 267.2476 0001511  71.0163 289.0989 15.06389654 75421","INCLINATION":"53.0554","LAUNCH_DATE":"2020-11-25","MEAN_ELEMENT_THEORY":"SGP4","PERIAPSIS":"546.199","MEAN_MOTION":"15.06389654","TLE_LINE1":"1 47178U 20088BJ  22093.87171550  .00001606  00000-0  12674-3 0  9991","OBJECT_ID":"2020-088BJ","MEAN_MOTION_DOT":"0.00001606"},{"MEAN_MOTION_DOT":"-0.00003899","OBJECT_ID":"2020-088BK","TLE_LINE1":"1 47179U 20088BK  22093.79339563 -.00003899  00000-0 -24311-3 0  9992","LAUNCH_DATE":"2020-11-25","TLE_LINE2":"2 47179  53.0538 277.5949 0001535  75.8221 284.2939 15.06381074 75279","INCLINATION":"53.0538","EPOCH":"2022-04-03T19:02:29.382432","PERIAPSIS":"546.209","MEAN_ELEMENT_THEORY":"SGP4","MEAN_MOTION":"15.06381074","DECAY_DATE":null,"ELEMENT_SET_NO":"999","APOAPSIS":"548.335","NORAD_CAT_ID":"47179","EPHEMERIS_TYPE":"0","TIME_SYSTEM":"UTC","GP_ID":"200377969","RA_OF_ASC_NODE":"277.5949","REF_FRAME":"TEME","RCS_SIZE":"LARGE","FILE":"3386965","OBJECT_TYPE":"PAYLOAD","CENTER_NAME":"EARTH","REV_AT_EPOCH":"7527","SITE":"AFETR","SEMIMAJOR_AXIS":"6925.407","BSTAR":"-0.00024311000000","ECCENTRICITY":"0.00015350","ARG_OF_PERICENTER":"75.8221","CLASSIFICATION_TYPE":"U","MEAN_MOTION_DDOT":"0.0000000000000","COUNTRY_CODE":"US","OBJECT_NAME":"STARLINK-1913","PERIOD":"95.593","MEAN_ANOMALY":"284.2939"},{"TLE_LINE1":"1 47181U 20088BM  22093.76666556  .00006095  00000-0  42788-3 0  9994","OBJECT_ID":"2020-088BM","MEAN_MOTION_DOT":"0.00006095","DECAY_DATE":null,"ELEMENT_SET_NO":"999","EPOCH":"2022-04-03T18:23:59.904384","TLE_LINE2":"2 47181  53.0543 247.7310 0001471  59.8049 300.3085 15.06386816 75695","INCLINATION":"53.0543","LAUNCH_DATE":"2020-11-25","PERIAPSIS":"546.235","MEAN_ELEMENT_THEORY":"SGP4","MEAN_MOTION":"15.06386816","RA_OF_ASC_NODE":"247.7310","GP_ID":"200378219","REF_FRAME":"TEME","TIME_SYSTEM":"UTC","RCS_SIZE":"LARGE","EPHEMERIS_TYPE":"0","APOAPSIS":"548.273","NORAD_CAT_ID":"47181","CENTER_NAME":"EARTH","OBJECT_TYPE":"PAYLOAD","FILE":"3386965","SEMIMAJOR_AXIS":"6925.389","REV_AT_EPOCH":"7569","SITE":"AFETR","ECCENTRICITY":"0.00014710","BSTAR":"0.00042788000000","CLASSIFICATION_TYPE":"U","ARG_OF_PERICENTER":"59.8049","MEAN_ANOMALY":"300.3085","PERIOD":"95.593","OBJECT_NAME":"STARLINK-1927","COUNTRY_CODE":"US","MEAN_MOTION_DDOT":"0.0000000000000"},{"ARG_OF_PERICENTER":"36.1592","CLASSIFICATION_TYPE":"U","MEAN_MOTION_DDOT":"0.0000000000000","COUNTRY_CODE":"US","OBJECT_NAME":"STARLINK-1952","MEAN_ANOMALY":"323.9542","PERIOD":"91.334","REV_AT_EPOCH":"6801","SITE":"AFETR","SEMIMAJOR_AXIS":"6718.145","BSTAR":"-0.00013476000000","ECCENTRICITY":"0.00017090","APOAPSIS":"341.158","NORAD_CAT_ID":"47349","EPHEMERIS_TYPE":"0","TIME_SYSTEM":"UTC","REF_FRAME":"TEME","GP_ID":"200378486","RA_OF_ASC_NODE":"287.9380","RCS_SIZE":"LARGE","FILE":"3386965","CENTER_NAME":"EARTH","OBJECT_TYPE":"PAYLOAD","MEAN_MOTION_DOT":"-0.00022556","OBJECT_ID":"2021-005A","TLE_LINE1":"1 47349U 21005A   22093.78421884 -.00022556  00000-0 -13476-3 0  9999","INCLINATION":"53.0393","TLE_LINE2":"2 47349  53.0393 287.9380 0001709  36.1592 323.9542 15.76626132 68014","LAUNCH_DATE":"2021-01-20","EPOCH":"2022-04-03T18:49:16.507776","PERIAPSIS":"338.862","MEAN_ELEMENT_THEORY":"SGP4","MEAN_MOTION":"15.76626132","ELEMENT_SET_NO":"999","DECAY_DATE":null},{"MEAN_MOTION_DDOT":"0.0000000000000","COUNTRY_CODE":"US","OBJECT_NAME":"STARLINK-2011","PERIOD":"95.593","MEAN_ANOMALY":"303.8834","ARG_OF_PERICENTER":"56.2313","CLASSIFICATION_TYPE":"U","BSTAR":"-0.00009004000000","ECCENTRICITY":"0.00016590","REV_AT_EPOCH":"6662","SITE":"AFETR","SEMIMAJOR_AXIS":"6925.379","FILE":"3386965","OBJECT_TYPE":"PAYLOAD","CENTER_NAME":"EARTH","NORAD_CAT_ID":"47350","APOAPSIS":"548.393","EPHEMERIS_TYPE":"0","TIME_SYSTEM":"UTC","GP_ID":"200378736","RA_OF_ASC_NODE":"27.5500","REF_FRAME":"TEME","RCS_SIZE":"LARGE","LAUNCH_DATE":"2021-01-20","TLE_LINE2":"2 47350  53.0575  27.5500 0001659  56.2313 303.8834 15.06390014 66624","INCLINATION":"53.0575","EPOCH":"2022-04-03T19:19:43.553280","PERIAPSIS":"546.095","MEAN_ELEMENT_THEORY":"SGP4","MEAN_MOTION":"15.06390014","DECAY_DATE":null,"ELEMENT_SET_NO":"999","MEAN_MOTION_DOT":"-0.00001622","OBJECT_ID":"2021-005B","TLE_LINE1":"1 47350U 21005B   22093.80536520 -.00001622  00000-0 -90040-4 0  9992"},{"ECCENTRICITY":"0.00015670","BSTAR":"-0.00008524500000","SEMIMAJOR_AXIS":"6925.436","REV_AT_EPOCH":"6719","SITE":"AFETR","PERIOD":"95.594","MEAN_ANOMALY":"272.3905","OBJECT_NAME":"STARLINK-2017","COUNTRY_CODE":"US","MEAN_MOTION_DDOT":"0.0000000000000","CLASSIFICATION_TYPE":"U","ARG_OF_PERICENTER":"87.7263","ELEMENT_SET_NO":"999","DECAY_DATE":null,"MEAN_MOTION":"15.06371536","PERIAPSIS":"546.216","MEAN_ELEMENT_THEORY":"SGP4","EPOCH":"2022-04-03T21:37:43.707648","TLE_LINE2":"2 47351  53.0546 347.1119 0001567  87.7263 272.3905 15.06371536 67191","LAUNCH_DATE":"2021-01-20","INCLINATION":"53.0546","TLE_LINE1":"1 47351U 21005C   22093.90120032 -.00001550  00000-0 -85245-4 0  9992","OBJECT_ID":"2021-005C","MEAN_MOTION_DOT":"-0.00001550","CENTER_NAME":"EARTH","OBJECT_TYPE":"PAYLOAD","FILE":"3386965","RCS_SIZE":"LARGE","GP_ID":"200379488","RA_OF_ASC_NODE":"347.1119","REF_FRAME":"TEME","TIME_SYSTEM":"UTC","EPHEMERIS_TYPE":"0","APOAPSIS":"548.386","NORAD_CAT_ID":"47351"},{"CLASSIFICATION_TYPE":"U","ARG_OF_PERICENTER":"54.5974","COUNTRY_CODE":"US","MEAN_MOTION_DDOT":"0.0000000000000","PERIOD":"95.593","MEAN_ANOMALY":"305.5183","OBJECT_NAME":"STARLINK-2034","SITE":"AFETR","REV_AT_EPOCH":"6657","SEMIMAJOR_AXIS":"6925.397","BSTAR":"-0.00028886000000","ECCENTRICITY":"0.00018080","EPHEMERIS_TYPE":"0","APOAPSIS":"548.514","NORAD_CAT_ID":"47352","RCS_SIZE":"LARGE","RA_OF_ASC_NODE":"28.8312","GP_ID":"200379239","REF_FRAME":"TEME","TIME_SYSTEM":"UTC","FILE":"3386965","OBJECT_TYPE":"PAYLOAD","CENTER_NAME":"EARTH","OBJECT_ID":"2021-005D","MEAN_MOTION_DOT":"-0.00004580","TLE_LINE1":"1 47352U 21005D   22093.52154516 -.00004580  00000-0 -28886-3 0  9998","MEAN_ELEMENT_THEORY":"SGP4","PERIAPSIS":"546.009","MEAN_MOTION":"15.06384342","EPOCH":"2022-04-03T12:31:01.501824","LAUNCH_DATE":"2021-01-20","TLE_LINE2":"2 47352  53.0569  28.8312 0001808  54.5974 305.5183 15.06384342 66571","INCLINATION":"53.0569","DECAY_DATE":null,"ELEMENT_SET_NO":"999"},{"SEMIMAJOR_AXIS":"6925.436","SITE":"AFETR","REV_AT_EPOCH":"6740","ECCENTRICITY":"0.00017760","BSTAR":"-0.00030060000000","CLASSIFICATION_TYPE":"U","ARG_OF_PERICENTER":"61.8258","MEAN_ANOMALY":"298.2911","PERIOD":"95.594","OBJECT_NAME":"STARLINK-2045","COUNTRY_CODE":"US","MEAN_MOTION_DDOT":"0.0000000000000","TLE_LINE1":"1 47353U 21005E   22093.87494506 -.00004753  00000-0 -30060-3 0  9992","OBJECT_ID":"2021-005E","MEAN_MOTION_DOT":"-0.00004753","ELEMENT_SET_NO":"999","DECAY_DATE":null,"MEAN_ELEMENT_THEORY":"SGP4","PERIAPSIS":"546.071","MEAN_MOTION":"15.06371508","EPOCH":"2022-04-03T20:59:55.253184","INCLINATION":"53.0563","TLE_LINE2":"2 47353  53.0563 332.2429 0001776  61.8258 298.2911 15.06371508 67407","LAUNCH_DATE":"2021-01-20","RCS_SIZE":"LARGE","RA_OF_ASC_NODE":"332.2429","GP_ID":"200377987","REF_FRAME":"TEME","TIME_SYSTEM":"UTC","EPHEMERIS_TYPE":"0","APOAPSIS":"548.531","NORAD_CAT_ID":"47353","CENTER_NAME":"EARTH","OBJECT_TYPE":"PAYLOAD","FILE":"3386965"},{"ARG_OF_PERICENTER":"75.1070","CLASSIFICATION_TYPE":"U","OBJECT_NAME":"STARLINK-2046","MEAN_ANOMALY":"285.0078","PERIOD":"95.593","MEAN_MOTION_DDOT":"0.0000000000000","COUNTRY_CODE":"US","SEMIMAJOR_AXIS":"6925.403","REV_AT_EPOCH":"6712","SITE":"AFETR","ECCENTRICITY":"0.00014380","BSTAR":"-0.00003715400000","TIME_SYSTEM":"UTC","GP_ID":"200378237","REF_FRAME":"TEME","RA_OF_ASC_NODE":"352.1833","RCS_SIZE":"LARGE","NORAD_CAT_ID":"47354","APOAPSIS":"548.264","EPHEMERIS_TYPE":"0","CENTER_NAME":"EARTH","OBJECT_TYPE":"PAYLOAD","FILE":"3386965","TLE_LINE1":"1 47354U 21005F   22093.88784326 -.00000835  00000-0 -37154-4 0  9995","MEAN_MOTION_DOT":"-0.00000835","OBJECT_ID":"2021-005F","ELEMENT_SET_NO":"999","DECAY_DATE":null,"TLE_LINE2":"2 47354  53.0549 352.1833 0001438  75.1070 285.0078 15.06382314 67121","INCLINATION":"53.0549","LAUNCH_DATE":"2021-01-20","EPOCH":"2022-04-03T21:18:29.657664","MEAN_MOTION":"15.06382314","PERIAPSIS":"546.272","MEAN_ELEMENT_THEORY":"SGP4"},{"FILE":"3386965","CENTER_NAME":"EARTH","OBJECT_TYPE":"PAYLOAD","EPHEMERIS_TYPE":"0","NORAD_CAT_ID":"47355","APOAPSIS":"548.378","GP_ID":"200378989","RA_OF_ASC_NODE":"337.1239","REF_FRAME":"TEME","TIME_SYSTEM":"UTC","RCS_SIZE":"LARGE","EPOCH":"2022-04-03T21:49:41.026368","TLE_LINE2":"2 47355  53.0431 337.1239 0001541  69.7132 290.4022 15.06368292 67339","LAUNCH_DATE":"2021-01-20","INCLINATION":"53.0431","MEAN_ELEMENT_THEORY":"SGP4","PERIAPSIS":"546.244","MEAN_MOTION":"15.06368292","DECAY_DATE":null,"ELEMENT_SET_NO":"999","OBJECT_ID":"2021-005G","MEAN_MOTION_DOT":"-0.00004353","TLE_LINE1":"1 47355U 21005G   22093.90950262 -.00004353  00000-0 -27377-3 0  9997","COUNTRY_CODE":"US","MEAN_MOTION_DDOT":"0.0000000000000","MEAN_ANOMALY":"290.4022","PERIOD":"95.594","OBJECT_NAME":"STARLINK-2047","CLASSIFICATION_TYPE":"U","ARG_OF_PERICENTER":"69.7132","BSTAR":"-0.00027377000000","ECCENTRICITY":"0.00015410","SITE":"AFETR","REV_AT_EPOCH":"6733","SEMIMAJOR_AXIS":"6925.446"}];
